[{"OBJECT_NAME":"OBJECT C","OBJECT_ID":"2024-110C","EPOCH":"2026-03-09T23:43:55.665408","MEAN_MOTION":14.9795015,"ECCENTRICITY":0.00127752,"INCLINATION":97.5516,"RA_OF_ASC_NODE":147.5124,"ARG_OF_PERICENTER":117.9593,"MEAN_ANOMALY":242.2925,"EPHEMERIS_TYPE":0,"CLASSIFICATION_TYPE":"U","NORAD_CAT_ID":60014,"ELEMENT_SET_NO":999,"REV_AT_EPOCH":8695,"BSTAR":0.00013340044,"MEAN_MOTION_DOT":1.519e-5,"MEAN_MOTION_DDOT":0},{"OBJECT_NAME":"FENGYUN 1C DEB","OBJECT_ID":"1999-025XG","EPOCH":"2026-03-09T14:05:00.255264","MEAN_MOTION":14.623867,"ECCENTRICITY":0.0186024,"INCLINATION":98.2742,"RA_OF_ASC_NODE":340.7736,"ARG_OF_PERICENTER":80.2516,"MEAN_ANOMALY":39.7352,"EPHEMERIS_TYPE":0,"CLASSIFICATION_TYPE":"U","NORAD_CAT_ID":30247,"ELEMENT_SET_NO":999,"REV_AT_EPOCH":98550,"BSTAR":0.0027146,"MEAN_MOTION_DOT":0.00017593,"MEAN_MOTION_DDOT":0}]
